[{"OBJECT_NAME":"HBTSS-SV2","OBJECT_ID":"2024-028A","EPOCH":"2026-03-09T12:33:04.893984","MEAN_MOTION":13.70447074,"ECCENTRICITY":0.0019418,"INCLINATION":39.99,"RA_OF_ASC_NODE":141.7809,"ARG_OF_PERICENTER":26.2746,"MEAN_ANOMALY":333.8982,"EPHEMERIS_TYPE":0,"CLASSIFICATION_TYPE":"U","NORAD_CAT_ID":58955,"ELEMENT_SET_NO":999,"REV_AT_EPOCH":10339,"BSTAR":0.0002328,"MEAN_MOTION_DOT":1.3e-6,"MEAN_MOTION_DDOT":0},{"OBJECT_NAME":"SL-8 R\/B","OBJECT_ID":"1988-023B","EPOCH":"2026-03-09T19:43:26.528448","MEAN_MOTION":13.78932424,"ECCENTRICITY":0.00403085,"INCLINATION":82.9576,"RA_OF_ASC_NODE":191.5142,"ARG_OF_PERICENTER":267.0566,"MEAN_ANOMALY":92.5979,"EPHEMERIS_TYPE":0,"CLASSIFICATION_TYPE":"U","NORAD_CAT_ID":18986,"ELEMENT_SET_NO":999,"REV_AT_EPOCH":90959,"BSTAR":0.00011203498,"MEAN_MOTION_DOT":1.3e-6,"MEAN_MOTION_DDOT":0}]
